SARSAT 7 (NOAA 15)      
1 25338U 98030A   22321.50431259  .00000148  00000+0  80090-4 0  9993
2 25338  98.6305 348.9429 0009921 206.0315 154.0368 14.26197216275089
GPS BIIR-08             
1 27663U 03005A   22320.63763649 -.00000024  00000+0  00000+0 0  9990
2 27663  55.4153 267.0151 0128651  41.5416 176.2353  2.00555661145068
GPS BIIR-11             
1 28190U 04009A   22320.85963440 -.00000043  00000+0  00000+0 0  9997
2 28190  55.9072 328.0226 0088402 127.7176  44.7888  2.00556982136709
GPS BIIR-13             
1 28474U 04045A   22318.83333333 -.00000095  00000+0  00000+0 0  9996
2 28474  55.3950  17.4252 0204051 280.6221  78.5853  2.00421526132158
SARSAT 10 (NOAA 18)     
1 28654U 05018A   22321.46536111  .00000133  00000+0  95407-4 0  9991
2 28654  98.9348  31.6703 0013344 257.7743 102.1934 14.12808148901678
GPS BIIR-14M            
1 28874U 05038A   22320.82384924 -.00000041  00000+0  00000+0 0  9998
2 28874  55.9674 325.4642 0140840 276.3446 259.2812  2.00565881125598
METEOSAT-9 (MSG-2)      
1 28912U 05049B   22320.47111146  .00000143  00000+0  00000+0 0  9990
2 28912   6.3598  65.2725 0001505 183.8717  21.6730  1.00269600 61952
GOES 13                 
1 29155U 06018A   22321.19156615  .00000054  00000+0  00000+0 0  9998
2 29155   0.9607  94.1030 0006825 141.2585 311.1691  1.00271843 60396
GPS BIIR-16M            
1 29601U 06052A   22320.14942685 -.00000022  00000+0  00000+0 0  9992
2 29601  55.4270 265.9790 0084014  75.0796 285.8512  2.00559304117156
GPS BIIR-17M            
1 32260U 07047A   22319.95446184  .00000077  00000+0  00000+0 0  9991
2 32260  53.3584 134.2631 0145184  66.0078 295.5344  2.00567010110558
GPS BIIR-18M            
1 32384U 07062A   22320.47108934 -.00000043  00000+0  00000+0 0  9996
2 32384  56.0914 326.2595 0019915 147.3317 353.2800  2.00570321109269
SARSAT 12 (NOAA 19)     
1 33591U 09005A   22321.55502304  .00000163  00000+0  11261-3 0  9992
2 33591  99.1314 358.7917 0014772 116.7847 243.4837 14.12639080710064
GOES 14                 
1 35491U 09033A   22321.52938576 -.00000079  00000+0  00000+0 0  9997
2 35491   0.2353 264.3529 0018299 317.5188 281.0892  1.00272667 49048
GOES 15                 
1 36411U 10008A   22321.53751422  .00000069  00000+0  00000+0 0  9996
2 36411   0.1937 280.8810 0003468 277.2076 283.7566  1.00276901 46548
GPS BIIF-2              
1 37753U 11036A   22320.64411503 -.00000087  00000+0  00000+0 0  9993
2 37753  56.6654  22.7874 0118436  53.3020   1.2080  2.00566311 83034
GSAT0101 (GALILEO-PFM)  
1 37846U 11060A   22321.35093397 -.00000080  00000+0  00000+0 0  9992
2 37846  57.0444  17.1864 0000749 356.8109   3.2472  1.70475037 68953
GSAT0102 (GALILEO-FM2)  
1 37847U 11060B   22320.69268476 -.00000082  00000+0  00000+0 0  9993
2 37847  57.0451  17.2040 0003107 298.6405  64.2925  1.70475426 68820
LUCH 5A                 
1 37951U 11074B   22320.71046640 -.00000031  00000+0  00000+0 0  9998
2 37951   5.3995  94.8084 0003164 120.4192 263.1643  1.00271101 40073
METEOSAT-10 (MSG-3)     
1 38552U 12035B   22321.25299907  .00000077  00000+0  00000+0 0  9999
2 38552   1.7695  48.7578 0001684 147.8046 320.4195  1.00269730 38105
SARSAT 13 (METOP-B)     
1 38771U 12049A   22321.52485660  .00000090  00000+0  61282-4 0  9999
2 38771  98.7108  19.1043 0000542  62.7186  74.1700 14.21494597527470
GPS BIIF-3              
1 38833U 12053A   22320.05427345  .00000021  00000+0  00000+0 0  9996
2 38833  53.5187 197.1460 0132382  48.6283 312.5858  2.00563699 73185
GSAT0103 (GALILEO-FM3)  
1 38857U 12055A   22320.80325590  .00000088  00000+0  00000+0 0  9999
2 38857  55.1829 137.5091 0001938 229.3851 130.6325  1.70473778 62844
GSAT0104 (GALILEO-FM4)  
1 38858U 12055B   22320.18654007  .00000083  00000+0  00000+0 0  9994
2 38858  55.1829 137.5275 0001676 140.5631 219.4818  1.70474064 62806
GPS BIIF-4              
1 39166U 13023A   22320.41103841 -.00000040  00000+0  00000+0 0  9998
2 39166  55.5901 321.7937 0106344  38.1254 322.6481  2.00565365 69637
INSAT-3D                
1 39216U 13038B   22320.55008288 -.00000143  00000+0  00000+0 0  9998
2 39216   0.0536 267.9971 0002305 332.9145  94.8072  1.00269795 33976
GPS BIIF-5              
1 39533U 14008A   22319.91559411  .00000013  00000+0  00000+0 0  9990
2 39533  53.6100 202.6746 0060458 209.2141 150.5251  2.00562066 63420
LUCH 5V                 
1 39727U 14023A   22320.76782094 -.00000255  00000+0  00000+0 0  9991
2 39727   1.8608  76.8214 0003301 181.3634 168.8416  1.00271049 31231
GPS BIIF-6              
1 39741U 14026A   22320.19518160 -.00000089  00000+0  00000+0 0  9993
2 39741  56.6241  22.3302 0028289 304.4936  55.2921  2.00577858 62284
GPS BIIF-7              
1 40105U 14045A   22320.78106532  .00000092  00000+0  00000+0 0  9994
2 40105  54.7273 140.7210 0024297 112.3396 247.9588  2.00557624 59833
GSAT0201 (GALILEO 5)    
1 40128U 14050A   22321.28492568 -.00000063  00000+0  00000+0 0  9997
2 40128  50.1774 326.1907 1616630 129.5923 245.8712  1.85519560 55990
GSAT0202 (GALILEO 6)    
1 40129U 14050B   22319.92840255 -.00000066  00000+0  00000+0 0  9999
2 40129  50.2017 325.3096 1613968 130.3540 244.9318  1.85520243 56193
GPS BIIF-8              
1 40294U 14068A   22320.64936732 -.00000001  00000+0  00000+0 0  9997
2 40294  55.9364  81.9309 0042440  58.7223 301.6854  2.00552114 58969
GLONASS-K 2             
1 40315U 14075A   22320.33557545 -.00000010  00000+0  00000+0 0  9996
2 40315  63.6691 235.8552 0018154 209.9481 355.8616  2.13101296 61969
GPS BIIF-9              
1 40534U 15013A   22320.29262840 -.00000026  00000+0  00000+0 0  9995
2 40534  53.6146 258.4031 0073798  21.1092 339.2019  2.00572728 55577
GSAT0203 (GALILEO 7)    
1 40544U 15017A   22321.13049719 -.00000081  00000+0  00000+0 0  9993
2 40544  56.8399  17.2048 0004704 243.9781 116.0315  1.70476352 47564
GSAT0204 (GALILEO 8)    
1 40545U 15017B   22320.21044672 -.00000084  00000+0  00000+0 0  9998
2 40545  56.8457  17.2429 0004663 232.0548 127.9604  1.70475397  9936
GPS BIIF-10             
1 40730U 15033A   22320.45042607 -.00000040  00000+0  00000+0 0  9996
2 40730  55.0849 320.5478 0077631   7.8230 352.3205  2.00570341 53741
METEOSAT-11 (MSG-4)     
1 40732U 15034A   22320.31857279  .00000009  00000+0  00000+0 0  9997
2 40732   0.4957 346.0356 0001037 140.0913  44.1382  1.00267127 26892
GSAT0205 (GALILEO 9)    
1 40889U 15045A   22321.15119557 -.00000014  00000+0  00000+0 0  9992
2 40889  55.5300 257.7458 0005157   4.4506 355.5563  1.70472961 44719
GSAT0206 (GALILEO 10)   
1 40890U 15045B   22319.61218317 -.00000014  00000+0  00000+0 0  9996
2 40890  55.5300 257.7841 0003675 350.3883   9.6087  1.70473018 44713
GPS BIIF-11             
1 41019U 15062A   22320.50191543 -.00000001  00000+0  00000+0 0  9996
2 41019  55.9233  81.7824 0083269 218.2418 141.1600  2.00562522 51584
ELEKTRO-L 2             
1 41105U 15074A   22320.88954767 -.00000099  00000+0  00000+0 0  9998
2 41105   3.3683  86.3083 0003042 141.5749 133.8620  1.00271534 25399
GSAT0209 (GALILEO 12)   
1 41174U 15079A   22320.95893259  .00000089  00000+0  00000+0 0  9993
2 41174  55.1991 137.2094 0001787 344.0319  15.9968  1.70474546 43050
GSAT0208 (GALILEO 11)   
1 41175U 15079B   22321.17843744  .00000090  00000+0  00000+0 0  9995
2 41175  55.1983 137.2020 0001356   2.9151 357.1207  1.70474479 43059
GPS BIIF-12             
1 41328U 16007A   22319.09333116  .00000071  00000+0  00000+0 0  9991
2 41328  54.9399 141.4961 0063843 229.6588 129.8194  2.00563835 49569
GSAT0211 (GALILEO 14)   
1 41549U 16030A   22320.12442441 -.00000013  00000+0  00000+0 0  9997
2 41549  55.6758 257.7189 0004724 329.4246  30.5517  1.70473038 40353
GSAT0210 (GALILEO 13)   
1 41550U 16030B   22320.41683334 -.00000013  00000+0  00000+0 0  9999
2 41550  55.6752 257.7123 0003911 301.8050  58.1605  1.70474518 40359
INSAT-3DR               
1 41752U 16054A   22320.83541825 -.00000064  00000+0  00000+0 0  9999
2 41752   0.1059  93.7824 0013870 172.1084 164.7669  1.00272812 22681
GSAT0207 (GALILEO 15)   
1 41859U 16069A   22318.90666373  .00000073  00000+0  00000+0 0  9993
2 41859  54.8604 137.4099 0001562 309.7060  50.3093  1.70474234 37066
GSAT0212 (GALILEO 16)   
1 41860U 16069B   22320.51988603  .00000085  00000+0  00000+0 0  9991
2 41860  54.8583 137.3626 0001616  31.2675 328.7755  1.70473201 37349
GSAT0213 (GALILEO 17)   
1 41861U 16069C   22319.71196479  .00000079  00000+0  00000+0 0  9997
2 41861  54.8602 137.3904 0001620 246.0598 113.9543  1.70473308 37196
GSAT0214 (GALILEO 18)   
1 41862U 16069D   22319.85914365  .00000080  00000+0  00000+0 0  9997
2 41862  54.8595 137.3808 0000753 228.4095 131.6155  1.70473284 37327
GOES 16                 
1 41866U 16071A   22321.29555741 -.00000234  00000+0  00000+0 0  9996
2 41866   0.0434 267.2048 0000868  11.2842 169.0870  1.00271968 21993
GSAT-17                 
1 42815U 17040B   22320.76755944 -.00000244  00000+0  00000+0 0  9997
2 42815   0.0676  94.9815 0006770 157.7181 172.9539  1.00270304 19662
GSAT0215 (GALILEO 19)   
1 43055U 17079A   22320.34898418 -.00000013  00000+0  00000+0 0  9998
2 43055  55.6516 257.5430 0003244 299.0661  60.9052  1.70473734 30673
GSAT0216 (GALILEO 20)   
1 43056U 17079B   22320.05451742 -.00000013  00000+0  00000+0 0  9992
2 43056  55.6528 257.5508 0004877 294.2285  65.7247  1.70473817 30687
GSAT0217 (GALILEO 21)   
1 43057U 17079C   22320.27479443 -.00000013  00000+0  00000+0 0  9995
2 43057  55.6501 257.5443 0004642 305.5052  54.4554  1.70473823 30677
GSAT0218 (GALILEO 22)   
1 43058U 17079D   22321.08141492 -.00000013  00000+0  00000+0 0  9996
2 43058  55.6497 257.5196 0005164 289.9401  70.0070  1.70473784 30684
GOES 17                 
1 43226U 18022A   22319.57379595  .00000110  00000+0  00000+0 0  9997
2 43226   0.0180 264.5804 0000562 349.0261 230.2845  1.00272274 17293
GSAT0221 (GALILEO 25)   
1 43564U 18060A   22318.63379551 -.00000089  00000+0  00000+0 0  9998
2 43564  57.2206  17.1267 0005011 263.9340  96.0665  1.70476159 26824
